{"type": "FeatureCollection", "features": [ {"type": "Feature", "properties": {"norad_id": 65942, "name": "BOTAN", "group": "stations", "lat": 34.08576136427902, "lon": -146.26265250612224, "alt_km": 383.2105488435609, "timestamp": "2025-12-04T09:47:36.322052+00:00", "meta": {"OBJECT_NAME": "BOTAN", "OBJECT_ID": "1998-067XP", "EPOCH": "2025-12-03T18:13:47.902944", "MEAN_MOTION": 15.60510623, "ECCENTRICITY": 0.00042436, "INCLINATION": 51.6281, "RA_OF_ASC_NODE": 184.5795, "ARG_OF_PERICENTER": 175.2259, "MEAN_ANOMALY": 184.8775, "EPHEMERIS_TYPE": 0, "CLASSIFICATION_TYPE": "U", "NORAD_CAT_ID": 65942, "ELEMENT_SET_NO": 999, "REV_AT_EPOCH": 846, "BSTAR": 0.0013484674, "MEAN_MOTION_DOT": 0.00114481, "MEAN_MOTION_DDOT": 0}, "tle": {"line1": "1 65942U 98067XP  25337.75958221  .00114481  00000+0  13485-2 0  9996", "line2": "2 65942  51.6281 184.5795 0004243 175.2259 184.8775 15.60510623  8461"}}, "geometry": {"type": "Point", "coordinates": [-146.26265250612224, 34.08576136427902]}}, {"type": "Feature", "properties": {"norad_id": 65943, "name": "E-KAGAKU-1", "group": "stations", "lat": 8.324766462709203, "lon": -4.851673542639352, "alt_km": 390.9441524907934, "timestamp": "2025-12-04T09:47:36.322062+00:00", "meta": {"OBJECT_NAME": "E-KAGAKU-1", "OBJECT_ID": "1998-067XQ", "EPOCH": "2025-12-02T21:39:34.941600", "MEAN_MOTION": 15.57714998, "ECCENTRICITY": 0.00035202, "INCLINATION": 51.6296, "RA_OF_ASC_NODE": 189.358, "ARG_OF_PERICENTER": 147.4331, "MEAN_ANOMALY": 212.6879, "EPHEMERIS_TYPE": 0, "CLASSIFICATION_TYPE": "U", "NORAD_CAT_ID": 65943, "ELEMENT_SET_NO": 999, "REV_AT_EPOCH": 832, "BSTAR": 0.00096701912, "MEAN_MOTION_DOT": 0.00073283, "MEAN_MOTION_DDOT": 0}, "tle": {"line1": "1 65943U 98067XQ  25336.90248775  .00073283  00000+0  96702-3 0  9997", "line2": "2 65943  51.6296 189.3580 0003520 147.4331 212.6879 15.57714998  8329"}}, "geometry": {"type": "Point", "coordinates": [-4.851673542639352, 8.324766462709203]}}, {"type": "Feature", "properties": {"norad_id": 66052, "name": "HRC MONOBLOCK CAMERA", "group": "stations", "lat": -41.3487712890427, "lon": 138.81476032643536, "alt_km": 413.9106011849899, "timestamp": "2025-12-04T09:47:36.322072+00:00", "meta": {"OBJECT_NAME": "HRC MONOBLOCK CAMERA", "OBJECT_ID": "1998-067XR", "EPOCH": "2025-12-03T20:08:36.473856", "MEAN_MOTION": 15.53262535, "ECCENTRICITY": 0.00043606, "INCLINATION": 51.6292, "RA_OF_ASC_NODE": 185.857, "ARG_OF_PERICENTER": 148.6875, "MEAN_ANOMALY": 211.4376, "EPHEMERIS_TYPE": 0, "CLASSIFICATION_TYPE": "U", "NORAD_CAT_ID": 66052, "ELEMENT_SET_NO": 999, "REV_AT_EPOCH": 745, "BSTAR": 0.00077352903, "MEAN_MOTION_DOT": 0.00049466, "MEAN_MOTION_DDOT": 0}, "tle": {"line1": "1 66052U 98067XR  25337.83931104  .00049466  00000+0  77353-3 0  9994", "line2": "2 66052  51.6292 185.8570 0004360 148.6875 211.4376 15.53262535  7459"}}, "geometry": {"type": "Point", "coordinates": [138.81476032643536, -41.3487712890427]}}, {"type": "Feature", "properties": {"norad_id": 66174, "name": "HTV-X1", "group": "stations", "lat": -26.950656564134857, "lon": 159.97181018656568, "alt_km": 423.5150212372728, "timestamp": "2025-12-04T09:47:36.322085+00:00", "meta": {"OBJECT_NAME": "HTV-X1", "OBJECT_ID": "2025-241A", "EPOCH": "2025-12-03T21:33:39.277728", "MEAN_MOTION": 15.4928465, "ECCENTRICITY": 0.00035922, "INCLINATION": 51.6303, "RA_OF_ASC_NODE": 186.2514, "ARG_OF_PERICENTER": 201.3576, "MEAN_ANOMALY": 158.7263, "EPHEMERIS_TYPE": 0, "CLASSIFICATION_TYPE": "U", "NORAD_CAT_ID": 66174, "ELEMENT_SET_NO": 999, "REV_AT_EPOCH": 51, "BSTAR": 0.00025253496, "MEAN_MOTION_DOT": 0.00013627, "MEAN_MOTION_DDOT": 0}, "tle": {"line1": "1 66174U 25241A   25337.89837127  .00013627  00000+0  25253-3 0  9991", "line2": "2 66174  51.6303 186.2514 0003592 201.3576 158.7263 15.49284650   516"}}, "geometry": {"type": "Point", "coordinates": [159.97181018656568, -26.950656564134857]}}, {"type": "Feature", "properties": {"norad_id": 66515, "name": "SZ-21 MODULE", "group": "stations", "lat": -37.904825009160675, "lon": 5.032289235097896, "alt_km": 384.4360684928415, "timestamp": "2025-12-04T09:47:36.322096+00:00", "meta": {"OBJECT_NAME": "SZ-21 MODULE", "OBJECT_ID": "2025-246C", "EPOCH": "2025-12-03T07:59:41.917920", "MEAN_MOTION": 15.61790567, "ECCENTRICITY": 0.0005832, "INCLINATION": 41.4771, "RA_OF_ASC_NODE": 73.3983, "ARG_OF_PERICENTER": 205.8085, "MEAN_ANOMALY": 154.2464, "EPHEMERIS_TYPE": 0, "CLASSIFICATION_TYPE": "U", "NORAD_CAT_ID": 66515, "ELEMENT_SET_NO": 999, "REV_AT_EPOCH": 297, "BSTAR": 0.00036812, "MEAN_MOTION_DOT": 0.0003262, "MEAN_MOTION_DDOT": 0}, "tle": {"line1": "1 66515U 25246C   25337.33312405  .00032620  00000+0  36812-3 0  9998", "line2": "2 66515  41.4771  73.3983 0005832 205.8085 154.2464 15.61790567  2979"}}, "geometry": {"type": "Point", "coordinates": [5.032289235097896, -37.904825009160675]}}, {"type": "Feature", "properties": {"norad_id": 66645, "name": "SHENZHOU-22", "group": "stations", "lat": 34.12973157760635, "lon": -162.86614600649804, "alt_km": 392.1576167765206, "timestamp": "2025-12-04T09:47:36.322106+00:00", "meta": {"OBJECT_NAME": "SHENZHOU-22", "OBJECT_ID": "2025-272A", "EPOCH": "2025-12-03T17:53:39.447744", "MEAN_MOTION": 15.58598848, "ECCENTRICITY": 0.00100687, "INCLINATION": 41.4679, "RA_OF_ASC_NODE": 71.2873, "ARG_OF_PERICENTER": 322.1315, "MEAN_ANOMALY": 37.8814, "EPHEMERIS_TYPE": 0, "CLASSIFICATION_TYPE": "U", "NORAD_CAT_ID": 66645, "ELEMENT_SET_NO": 999, "REV_AT_EPOCH": 26263, "BSTAR": 0.00035132982, "MEAN_MOTION_DOT": 0.00027527, "MEAN_MOTION_DDOT": 0}, "tle": {"line1": "1 66645U 25272A   25337.74559546  .00027527  00000+0  35133-3 0  9990", "line2": "2 66645  41.4679  71.2873 0010068 322.1315  37.8814 15.58598848262631"}}, "geometry": {"type": "Point", "coordinates": [-162.86614600649804, 34.12973157760635]}}, {"type": "Feature", "properties": {"norad_id": 66646, "name": "CZ-2F R/B", "group": "stations", "lat": -25.525356838930417, "lon": -83.98396103592576, "alt_km": 190.9843933512484, "timestamp": "2025-12-04T09:47:36.322117+00:00", "meta": {"OBJECT_NAME": "CZ-2F R/B", "OBJECT_ID": "2025-272B", "EPOCH": "2025-11-26T11:17:54.506400", "MEAN_MOTION": 16.01945612, "ECCENTRICITY": 0.01210796, "INCLINATION": 41.4431, "RA_OF_ASC_NODE": 114.9009, "ARG_OF_PERICENTER": 133.7676, "MEAN_ANOMALY": 227.3272, "EPHEMERIS_TYPE": 0, "CLASSIFICATION_TYPE": "U", "NORAD_CAT_ID": 66646, "ELEMENT_SET_NO": 999, "REV_AT_EPOCH": 21, "BSTAR": 0.00029319366, "MEAN_MOTION_DOT": 0.00449059, "MEAN_MOTION_DDOT": 7.567612e-06}, "tle": {"line1": "1 66646U 25272B   25330.47076975  .00449059  75676-5  29319-3 0  9998", "line2": "2 66646  41.4431 114.9009 0121079 133.7676 227.3272 16.01945612   217"}}, "geometry": {"type": "Point", "coordinates": [-83.98396103592576, -25.525356838930417]}}, {"type": "Feature", "properties": {"norad_id": 66664, "name": "SOYUZ-MS 28", "group": "stations", "lat": -26.950614634223765, "lon": 159.97185581379858, "alt_km": 423.5150203934063, "timestamp": "2025-12-04T09:47:36.322127+00:00", "meta": {"OBJECT_NAME": "SOYUZ-MS 28", "OBJECT_ID": "2025-275A", "EPOCH": "2025-12-03T21:33:39.276864", "MEAN_MOTION": 15.4928465, "ECCENTRICITY": 0.0003592, "INCLINATION": 51.6303, "RA_OF_ASC_NODE": 186.2514, "ARG_OF_PERICENTER": 201.3576, "MEAN_ANOMALY": 158.7263, "EPHEMERIS_TYPE": 0, "CLASSIFICATION_TYPE": "U", "NORAD_CAT_ID": 66664, "ELEMENT_SET_NO": 999, "REV_AT_EPOCH": 107, "BSTAR": 0.00025253, "MEAN_MOTION_DOT": 0.00013627, "MEAN_MOTION_DDOT": 0}, "tle": {"line1": "1 66664U 25275A   25337.89837126  .00013627  00000+0  25253-3 0  9991", "line2": "2 66664  51.6303 186.2514 0003592 201.3576 158.7263 15.49284650  1072"}}, "geometry": {"type": "Point", "coordinates": [159.97185581379858, -26.950614634223765]}}]}